{"results":1,"data":[{"wind":{"degrees":310,"speed_kts":4,"speed_mph":5,"speed_mps":2},"temperature":{"celsius":14,"fahrenheit":57},"dewpoint":{"celsius":8,"fahrenheit":46},"humidity":{"percent":67},"barometer":{"hg":29.94,"hpa":1014,"kpa":101.39,"mb":1013.92},"visibility":{"miles":"Greater than 6","miles_float":6.21,"meters":"10,000+","meters_float":10000},"elevation":{"feet":269.03,"meters":82},"location":{"coordinates":[-1.32,51.836899],"type":"Point"},"icao":"EGTK","observed":"2019-05-20T19:50:00.000Z","raw_text":"EGTK 201950Z 31004KT CAVOK 14/08 Q1014","station":{"name":"Oxford (Kidlington)"},"clouds":[{"code":"CAVOK","text":"Clear skies"}],"flight_category":"VFR","conditions":[]}]}